ION SCV-008             
1 55051U 23001AU  26068.82429008  .00008336  00000+0  31423-3 0  9992
2 55051  97.5676 163.6060 0015192   8.5420 351.6074 15.27226640176169
STARLINK-36201          
1 67164U 25303B   26068.06308963  .00044271  00000+0  16085-2 0  9993
2 67164  43.0035 313.8854 0002617 255.6496 104.4066 15.27581110 12641
